{"type": "FeatureCollection", "features": [ {"type": "Feature", "properties": {"norad_id": 43108, "name": "BEIDOU-3 M8 (C28)", "group": "beidou", "lat": 18.58738255523453, "lon": 114.52300262132582, "alt_km": 21532.575078659935, "timestamp": "2025-12-23T09:49:07.348352+00:00", "meta": {"OBJECT_NAME": "BEIDOU-3 M8 (C28)", "OBJECT_ID": "2018-003B", "EPOCH": "2025-12-22T02:25:29.511264", "MEAN_MOTION": 1.86231112, "ECCENTRICITY": 0.00045888, "INCLINATION": 54.4814, "RA_OF_ASC_NODE": 308.4721, "ARG_OF_PERICENTER": 278.5126, "MEAN_ANOMALY": 81.4339, "EPHEMERIS_TYPE": 0, "CLASSIFICATION_TYPE": "U", "NORAD_CAT_ID": 43108, "ELEMENT_SET_NO": 999, "REV_AT_EPOCH": 5406, "BSTAR": 0, "MEAN_MOTION_DOT": -6e-07, "MEAN_MOTION_DDOT": 0}, "tle": {"line1": "1 43108U 18003B   25356.10103601 -.00000060  00000+0  00000+0 0  9996", "line2": "2 43108  54.4814 308.4721 0004588 278.5126  81.4339  1.86231112 54063"}}, "geometry": {"type": "Point", "coordinates": [114.52300262132582, 18.58738255523453]}}, {"type": "Feature", "properties": {"norad_id": 43207, "name": "BEIDOU-3 M4 (C22)", "group": "beidou", "lat": -32.919920421329536, "lon": -85.66949535336887, "alt_km": 21541.48176587747, "timestamp": "2025-12-23T09:49:07.348363+00:00", "meta": {"OBJECT_NAME": "BEIDOU-3 M4 (C22)", "OBJECT_ID": "2018-018A", "EPOCH": "2025-12-22T00:08:46.770432", "MEAN_MOTION": 1.86231216, "ECCENTRICITY": 0.00041705, "INCLINATION": 56.4932, "RA_OF_ASC_NODE": 68.9979, "ARG_OF_PERICENTER": 3.572, "MEAN_ANOMALY": 356.4799, "EPHEMERIS_TYPE": 0, "CLASSIFICATION_TYPE": "U", "NORAD_CAT_ID": 43207, "ELEMENT_SET_NO": 999, "REV_AT_EPOCH": 5344, "BSTAR": 0, "MEAN_MOTION_DOT": -3.1e-07, "MEAN_MOTION_DDOT": 0}, "tle": {"line1": "1 43207U 18018A   25356.00609688 -.00000031  00000+0  00000+0 0  9995", "line2": "2 43207  56.4932  68.9979 0004170   3.5720 356.4799  1.86231216 53443"}}, "geometry": {"type": "Point", "coordinates": [-85.66949535336887, -32.919920421329536]}}, {"type": "Feature", "properties": {"norad_id": 43208, "name": "BEIDOU-3 M3 (C21)", "group": "beidou", "lat": 3.3381305923066398, "lon": -113.23673550336538, "alt_km": 21542.40540063989, "timestamp": "2025-12-23T09:49:07.348375+00:00", "meta": {"OBJECT_NAME": "BEIDOU-3 M3 (C21)", "OBJECT_ID": "2018-018B", "EPOCH": "2025-12-22T01:44:32.904384", "MEAN_MOTION": 1.86231411, "ECCENTRICITY": 0.00070212, "INCLINATION": 56.4927, "RA_OF_ASC_NODE": 68.9999, "ARG_OF_PERICENTER": 313.8798, "MEAN_ANOMALY": 46.1114, "EPHEMERIS_TYPE": 0, "CLASSIFICATION_TYPE": "U", "NORAD_CAT_ID": 43208, "ELEMENT_SET_NO": 999, "REV_AT_EPOCH": 5344, "BSTAR": 0, "MEAN_MOTION_DOT": -3e-07, "MEAN_MOTION_DDOT": 0}, "tle": {"line1": "1 43208U 18018B   25356.07260306 -.00000030  00000+0  00000+0 0  9992", "line2": "2 43208  56.4927  68.9999 0007021 313.8798  46.1114  1.86231411 53441"}}, "geometry": {"type": "Point", "coordinates": [-113.23673550336538, 3.3381305923066398]}}, {"type": "Feature", "properties": {"norad_id": 43245, "name": "BEIDOU-3 M9 (C29)", "group": "beidou", "lat": 24.793911846474227, "lon": -34.58831172997986, "alt_km": 21526.086263394773, "timestamp": "2025-12-23T09:49:07.348386+00:00", "meta": {"OBJECT_NAME": "BEIDOU-3 M9 (C29)", "OBJECT_ID": "2018-029A", "EPOCH": "2025-12-21T18:02:44.382048", "MEAN_MOTION": 1.8622836, "ECCENTRICITY": 0.00015407, "INCLINATION": 54.3576, "RA_OF_ASC_NODE": 306.1541, "ARG_OF_PERICENTER": 290.4225, "MEAN_ANOMALY": 69.56, "EPHEMERIS_TYPE": 0, "CLASSIFICATION_TYPE": "U", "NORAD_CAT_ID": 43245, "ELEMENT_SET_NO": 999, "REV_AT_EPOCH": 5259, "BSTAR": 0, "MEAN_MOTION_DOT": -5.9e-07, "MEAN_MOTION_DDOT": 0}, "tle": {"line1": "1 43245U 18029A   25355.75190257 -.00000059  00000+0  00000+0 0  9997", "line2": "2 43245  54.3576 306.1541 0001540 290.4225  69.5600  1.86228360 52597"}}, "geometry": {"type": "Point", "coordinates": [-34.58831172997986, 24.793911846474227]}}, {"type": "Feature", "properties": {"norad_id": 43246, "name": "BEIDOU-3 M10 (C30)", "group": "beidou", "lat": 51.57701286757828, "lon": 10.746055401629084, "alt_km": 21518.29569028112, "timestamp": "2025-12-23T09:49:07.348397+00:00", "meta": {"OBJECT_NAME": "BEIDOU-3 M10 (C30)", "OBJECT_ID": "2018-029B", "EPOCH": "2025-12-22T05:22:40.236384", "MEAN_MOTION": 1.86229249, "ECCENTRICITY": 0.0004309, "INCLINATION": 54.3545, "RA_OF_ASC_NODE": 306.1644, "ARG_OF_PERICENTER": 3.3076, "MEAN_ANOMALY": 356.6961, "EPHEMERIS_TYPE": 0, "CLASSIFICATION_TYPE": "U", "NORAD_CAT_ID": 43246, "ELEMENT_SET_NO": 999, "REV_AT_EPOCH": 5258, "BSTAR": 0, "MEAN_MOTION_DOT": -5.7e-07, "MEAN_MOTION_DDOT": 0}, "tle": {"line1": "1 43246U 18029B   25356.22407681 -.00000057  00000+0  00000+0 0  9991", "line2": "2 43246  54.3545 306.1644 0004309   3.3076 356.6961  1.86229249 52585"}}, "geometry": {"type": "Point", "coordinates": [10.746055401629084, 51.57701286757828]}}, {"type": "Feature", "properties": {"norad_id": 43539, "name": "BEIDOU-2 IGSO-7 (C16)", "group": "beidou", "lat": -3.5863040121044216, "lon": -12.933270786010086, "alt_km": 35543.71067928006, "timestamp": "2025-12-23T09:49:07.348408+00:00", "meta": {"OBJECT_NAME": "BEIDOU-2 IGSO-7 (C16)", "OBJECT_ID": "2018-057A", "EPOCH": "2025-12-15T07:47:07.120608", "MEAN_MOTION": 1.00256546, "ECCENTRICITY": 0.00926218, "INCLINATION": 55.1766, "RA_OF_ASC_NODE": 164.6485, "ARG_OF_PERICENTER": 235.2644, "MEAN_ANOMALY": 271.8458, "EPHEMERIS_TYPE": 0, "CLASSIFICATION_TYPE": "U", "NORAD_CAT_ID": 43539, "ELEMENT_SET_NO": 999, "REV_AT_EPOCH": 2728, "BSTAR": 0, "MEAN_MOTION_DOT": -2.3e-07, "MEAN_MOTION_DDOT": 0}, "tle": {"line1": "1 43539U 18057A   25349.32438797 -.00000023  00000+0  00000+0 0  9995", "line2": "2 43539  55.1766 164.6485 0092621 235.2644 271.8458  1.00256546 27289"}}, "geometry": {"type": "Point", "coordinates": [-12.933270786010086, -3.5863040121044216]}}, {"type": "Feature", "properties": {"norad_id": 43581, "name": "BEIDOU-3 M5 (C23)", "group": "beidou", "lat": -51.795906480076226, "lon": 121.1795211173679, "alt_km": 21532.7325056129, "timestamp": "2025-12-23T09:49:07.348421+00:00", "meta": {"OBJECT_NAME": "BEIDOU-3 M5 (C23)", "OBJECT_ID": "2018-062A", "EPOCH": "2025-12-20T20:06:28.310688", "MEAN_MOTION": 1.86228979, "ECCENTRICITY": 0.00019404, "INCLINATION": 54.0899, "RA_OF_ASC_NODE": 188.3678, "ARG_OF_PERICENTER": 1.4371, "MEAN_ANOMALY": 358.6166, "EPHEMERIS_TYPE": 0, "CLASSIFICATION_TYPE": "U", "NORAD_CAT_ID": 43581, "ELEMENT_SET_NO": 999, "REV_AT_EPOCH": 5031, "BSTAR": 0, "MEAN_MOTION_DOT": 9.5e-07, "MEAN_MOTION_DDOT": 0}, "tle": {"line1": "1 43581U 18062A   25354.83782767  .00000095  00000+0  00000+0 0  9997", "line2": "2 43581  54.0899 188.3678 0001940   1.4371 358.6166  1.86228979 50315"}}, "geometry": {"type": "Point", "coordinates": [121.1795211173679, -51.795906480076226]}}, {"type": "Feature", "properties": {"norad_id": 43582, "name": "BEIDOU-3 M6 (C24)", "group": "beidou", "lat": 12.722523794500951, "lon": -162.30539147006223, "alt_km": 21508.2606126242, "timestamp": "2025-12-23T09:49:07.348432+00:00", "meta": {"OBJECT_NAME": "BEIDOU-3 M6 (C24)", "OBJECT_ID": "2018-062B", "EPOCH": "2025-12-21T18:35:38.749056", "MEAN_MOTION": 1.86229862, "ECCENTRICITY": 0.00078412, "INCLINATION": 54.0893, "RA_OF_ASC_NODE": 188.325, "ARG_OF_PERICENTER": 48.2344, "MEAN_ANOMALY": 311.88, "EPHEMERIS_TYPE": 0, "CLASSIFICATION_TYPE": "U", "NORAD_CAT_ID": 43582, "ELEMENT_SET_NO": 999, "REV_AT_EPOCH": 5033, "BSTAR": 0, "MEAN_MOTION_DOT": 9.4e-07, "MEAN_MOTION_DDOT": 0}, "tle": {"line1": "1 43582U 18062B   25355.77475404  .00000094  00000+0  00000+0 0  9998", "line2": "2 43582  54.0893 188.3250 0007841  48.2344 311.8800  1.86229862 50331"}}, "geometry": {"type": "Point", "coordinates": [-162.30539147006223, 12.722523794500951]}}, {"type": "Feature", "properties": {"norad_id": 43602, "name": "BEIDOU-3 M12 (C26)", "group": "beidou", "lat": 43.11593540885046, "lon": -130.4232181409608, "alt_km": 21498.32051828653, "timestamp": "2025-12-23T09:49:07.348451+00:00", "meta": {"OBJECT_NAME": "BEIDOU-3 M12 (C26)", "OBJECT_ID": "2018-067A", "EPOCH": "2025-12-19T13:33:24.239232", "MEAN_MOTION": 1.86227856, "ECCENTRICITY": 0.00092481, "INCLINATION": 54.1835, "RA_OF_ASC_NODE": 187.1314, "ARG_OF_PERICENTER": 41.3287, "MEAN_ANOMALY": 318.7989, "EPHEMERIS_TYPE": 0, "CLASSIFICATION_TYPE": "U", "NORAD_CAT_ID": 43602, "ELEMENT_SET_NO": 999, "REV_AT_EPOCH": 4977, "BSTAR": 0, "MEAN_MOTION_DOT": 1.01e-06, "MEAN_MOTION_DDOT": 0}, "tle": {"line1": "1 43602U 18067A   25353.56486388  .00000101  00000+0  00000+0 0  9993", "line2": "2 43602  54.1835 187.1314 0009248  41.3287 318.7989  1.86227856 49773"}}, "geometry": {"type": "Point", "coordinates": [-130.4232181409608, 43.11593540885046]}}, {"type": "Feature", "properties": {"norad_id": 43603, "name": "BEIDOU-3 M11 (C25)", "group": "beidou", "lat": -26.07954995029134, "lon": 166.2548988553642, "alt_km": 21526.503890794043, "timestamp": "2025-12-23T09:49:07.348477+00:00", "meta": {"OBJECT_NAME": "BEIDOU-3 M11 (C25)", "OBJECT_ID": "2018-067B", "EPOCH": "2025-12-21T20:19:59.001024", "MEAN_MOTION": 1.86227373, "ECCENTRICITY": 0.00056493, "INCLINATION": 54.1806, "RA_OF_ASC_NODE": 187.018, "ARG_OF_PERICENTER": 37.4949, "MEAN_ANOMALY": 322.5886, "EPHEMERIS_TYPE": 0, "CLASSIFICATION_TYPE": "U", "NORAD_CAT_ID": 43603, "ELEMENT_SET_NO": 999, "REV_AT_EPOCH": 4984, "BSTAR": 0, "MEAN_MOTION_DOT": 9.4e-07, "MEAN_MOTION_DDOT": 0}, "tle": {"line1": "1 43603U 18067B   25355.84721066  .00000094  00000+0  00000+0 0  9993", "line2": "2 43603  54.1806 187.0180 0005649  37.4949 322.5886  1.86227373 49845"}}, "geometry": {"type": "Point", "coordinates": [166.2548988553642, -26.07954995029134]}}]}